[
    {
        "CCSDS_OMM_VERS": "3.0",
        "COMMENT": "GENERATED VIA SPACE-TRACK.ORG API",
        "CREATION_DATE": "2025-04-12T22:09:39",
        "ORIGINATOR": "18 SPCS",
        "OBJECT_NAME": "NAVSTAR 82 (USA 343)",
        "OBJECT_ID": "2023-009A",
        "CENTER_NAME": "EARTH",
        "REF_FRAME": "TEME",
        "TIME_SYSTEM": "UTC",
        "MEAN_ELEMENT_THEORY": "SGP4",
        "EPOCH": "2025-04-12T15:18:46.078848",
        "MEAN_MOTION": "2.00573202",
        "ECCENTRICITY": "0.00024700",
        "INCLINATION": "55.0888",
        "RA_OF_ASC_NODE": "165.4262",
        "ARG_OF_PERICENTER": "334.5707",
        "MEAN_ANOMALY": "353.2066",
        "EPHEMERIS_TYPE": "0",
        "CLASSIFICATION_TYPE": "U",
        "NORAD_CAT_ID": "55268",
        "ELEMENT_SET_NO": "999",
        "REV_AT_EPOCH": "1660",
        "BSTAR": "0.00000000000000",
        "MEAN_MOTION_DOT": "0.00000047",
        "MEAN_MOTION_DDOT": "0.0000000000000",
        "SEMIMAJOR_AXIS": "26559.500",
        "PERIOD": "717.942",
        "APOAPSIS": "20187.926",
        "PERIAPSIS": "20174.805",
        "OBJECT_TYPE": "PAYLOAD",
        "RCS_SIZE": "LARGE",
        "COUNTRY_CODE": "US",
        "LAUNCH_DATE": "2023-01-18",
        "SITE": "AFETR",
        "DECAY_DATE": null,
        "FILE": "4699941",
        "GP_ID": "285453349",
        "TLE_LINE0": "0 NAVSTAR 82 (USA 343)",
        "TLE_LINE1": "1 55268U 23009A   25102.63803332  .00000047  00000-0  00000-0 0  9999",
        "TLE_LINE2": "2 55268  55.0888 165.4262 0002470 334.5707 353.2066  2.00573202 16609"
    }
]